SHIYAN-24C 03           
1 58652U 23206C   26068.89147317  .00001350  00000+0  11928-3 0  9993
2 58652  97.3969  41.7507 0002411  66.6237 293.5240 14.97896938120432
STARLINK-34461          
1 64418U 25129G   26068.42785764 -.00000699  00000+0 -50790-4 0  9997
2 64418  70.0007  75.2940 0003089 266.5562  93.5244 14.98331937 41244
